{
    "CCSDS_OMM_VERS": "3.0",
    "COMMENT": "GENERATED VIA SPACE-TRACK.ORG API",
    "CREATION_DATE": "2025-11-23T22:56:29",
    "ORIGINATOR": "18 SPCS",
    "OBJECT_NAME": "NAVSTAR 74 (USA 262)",
    "OBJECT_ID": "2015-033A",
    "CENTER_NAME": "EARTH",
    "REF_FRAME": "TEME",
    "TIME_SYSTEM": "UTC",
    "MEAN_ELEMENT_THEORY": "SGP4",
    "EPOCH": "2025-11-23T07:20:56.215680",
    "MEAN_MOTION": "2.00566622",
    "ECCENTRICITY": "0.01097570",
    "INCLINATION": "54.1478",
    "RA_OF_ASC_NODE": "275.5725",
    "ARG_OF_PERICENTER": "26.3293",
    "MEAN_ANOMALY": "334.2225",
    "EPHEMERIS_TYPE": "0",
    "CLASSIFICATION_TYPE": "U",
    "NORAD_CAT_ID": "40730",
    "ELEMENT_SET_NO": "999",
    "REV_AT_EPOCH": "7586",
    "BSTAR": "0.00000000000000",
    "MEAN_MOTION_DOT": "-0.00000023",
    "MEAN_MOTION_DDOT": "0.0000000000000",
    "SEMIMAJOR_AXIS": "26560.081",
    "PERIOD": "717.966",
    "APOAPSIS": "20473.462",
    "PERIAPSIS": "19890.431",
    "OBJECT_TYPE": "PAYLOAD",
    "RCS_SIZE": "LARGE",
    "COUNTRY_CODE": "US",
    "LAUNCH_DATE": "2015-07-15",
    "SITE": "AFETR",
    "DECAY_DATE": null,
    "FILE": "4896298",
    "GP_ID": "303350686",
    "TLE_LINE0": "0 NAVSTAR 74 (USA 262)",
    "TLE_LINE1": "1 40730U 15033A   25327.30620620 -.00000023  00000-0  00000+0 0  9999",
    "TLE_LINE2": "2 40730  54.1478 275.5725 0109757  26.3293 334.2225  2.00566622 75868"
}